ONEWEB-0517             
1 54135U 22138Y   23284.57370690  .00000101  00000+0  21960-3 0  9992
2 54135  87.9213 139.9486 0002071  81.8677 278.2691 13.19720215 47622
ONEWEB-0518             
1 54136U 22138Z   23284.59267114  .00000088  00000+0  18834-3 0  9991
2 54136  87.9210 139.9443 0001777  85.5467 274.5869 13.19725516 47628
ONEWEB-0519             
1 54137U 22138AA  23284.54214347  .00000033  00000+0  49149-4 0  9991
2 54137  87.9211 139.9523 0002183  81.1777 278.9603 13.19726271 47620
ONEWEB-0520             
1 54138U 22138AB  23284.57689204  .00000070  00000+0  14366-3 0  9996
2 54138  87.9212 139.9478 0002220  72.5541 287.5834 13.19725095 47610
ONEWEB-0521             
1 54139U 22138AC  23284.61003598  .00000050  00000+0  92694-4 0  9997
2 54139  87.9208 139.9379 0001744  91.7530 268.3803 13.19726724 47564
ONEWEB-0522             
1 54140U 22138AD  23284.58951262  .00000034  00000+0  51471-4 0  9995
2 54140  87.9209 139.9442 0001751  76.0183 284.1144 13.19724574 47606
ONEWEB-0523             
1 54141U 22138AE  23284.57146735  .00000033  00000+0  48197-4 0  9996
2 54141  87.9151 109.4652 0000749 125.4921 234.6282 13.20772723 49991
ONEWEB-0524             
1 54142U 22138AF  23284.55885023  .00000164  00000+0  37191-3 0  9991
2 54142  87.9181 109.4504 0001056  40.8332 319.2880 13.20771852 49995
